{
    "OEM": [
        {
            "CCSDS_OEM_VERS": 29028.75,
            "CREATION_DATE": "2060-02-08T02:42:42.144Z",
            "ORIGINATOR": "Stoltenberg LLC",
            "file_id": "QmSJRWprPyQyir69Rju1BMMYkT6BXmN9hqjhDmC431cZRc",
            "id": 178899775259199740
        }
    ],
    "ephemerisDataBlock": [
        {
            "COMMENT": "0>U?9Mj-jF",
            "OBJECT_NAME": "TH\\7TWz=T|",
            "OBJECT_ID": "+>V%vBf$W@",
            "CENTER_NAME": "]}-dupj9<R",
            "REF_FRAME": 4,
            "REF_FRAME_EPOCH": "2002-12-15T06:49:49.217Z",
            "TIME_SYSTEM": 5,
            "START_TIME": "2019-08-30T18:16:14.033Z",
            "USEABLE_START_TIME": "2067-02-02T22:26:19.539Z",
            "USEABLE_STOP_TIME": "2083-12-07T16:41:57.294Z",
            "STOP_TIME": "2082-02-03T11:24:49.557Z",
            "INTERPOLATION": "p]0j'a|GA)",
            "INTERPOLATION_DEGREE": 841225111,
            "OEM_id": 178899775259199740,
            "id": 178899780478701000
        },
        {
            "COMMENT": "E5%H)FP);^",
            "OBJECT_NAME": "r`*NOf!|x(",
            "OBJECT_ID": "NB1,DA2S9z",
            "CENTER_NAME": "dt`p/CeL[H",
            "REF_FRAME": 3,
            "REF_FRAME_EPOCH": "2059-04-16T04:58:57.453Z",
            "TIME_SYSTEM": 4,
            "START_TIME": "2019-09-21T16:08:06.062Z",
            "USEABLE_START_TIME": "2015-04-20T06:52:04.144Z",
            "USEABLE_STOP_TIME": "2041-01-01T15:36:54.382Z",
            "STOP_TIME": "2042-06-24T16:56:15.573Z",
            "INTERPOLATION": "$vo3FM/@CM",
            "INTERPOLATION_DEGREE": 2112477013,
            "OEM_id": 178899775259199740,
            "id": 178899787291300300
        }
    ],
    "ephemerisDataLine": [
        {
            "EPOCH": "2073-02-07T00:29:58.984Z",
            "X": 48924.26,
            "Y": 41498.08,
            "Z": 69594.96,
            "X_DOT": 45014.35,
            "Y_DOT": 15545.92,
            "Z_DOT": 22472.31,
            "X_DDOT": 89920.26,
            "Y_DDOT": 3952.97,
            "Z_DDOT": 34442.3,
            "ephemerisDataBlock_id": 178899780478701000,
            "id": 178899782796499140
        },
        {
            "EPOCH": "2098-08-03T07:18:01.592Z",
            "X": 69287.58,
            "Y": 85602.58,
            "Z": 22989.54,
            "X_DOT": 45701.49,
            "Y_DOT": 60247.63,
            "Z_DOT": 16377.94,
            "X_DDOT": 99409.53,
            "Y_DDOT": 9821.9,
            "Z_DDOT": 29055.65,
            "ephemerisDataBlock_id": 178899780478701000,
            "id": 178899783058199300
        },
        {
            "EPOCH": "2016-04-25T21:23:46.916Z",
            "X": 3790.89,
            "Y": 86013.42,
            "Z": 68800.12,
            "X_DOT": 5551.51,
            "Y_DOT": 1271.88,
            "Z_DOT": 76275.02,
            "X_DDOT": 8192.32,
            "Y_DDOT": 94419.72,
            "Z_DDOT": 31980.06,
            "ephemerisDataBlock_id": 178899787291300300,
            "id": 178899788151299970
        },
        {
            "EPOCH": "2071-01-11T22:50:50.977Z",
            "X": 30911.71,
            "Y": 6135.99,
            "Z": 40111.14,
            "X_DOT": 23700.38,
            "Y_DOT": 90433.47,
            "Z_DOT": 24253.69,
            "X_DDOT": 16024.67,
            "Y_DDOT": 73034.31,
            "Z_DDOT": 42908.15,
            "ephemerisDataBlock_id": 178899787291300300,
            "id": 178899788271200670
        }
    ],
    "covarianceMatrixLine": [
        {
            "EPOCH": "2022-05-22T12:31:48.365Z",
            "COV_REF_FRAME": 0,
            "CX_X": 7745.25,
            "CY_X": 25402.43,
            "CY_Y": 16561,
            "CZ_X": 60383.89,
            "CZ_Y": 18662.09,
            "CZ_Z": 38585.16,
            "CX_DOT_X": 15436.83,
            "CX_DOT_Y": 219.21,
            "CX_DOT_Z": 23949.29,
            "CX_DOT_X_DOT": 40827.73,
            "CY_DOT_X": 36600.02,
            "CY_DOT_Y": 69925.35,
            "CY_DOT_Z": 67484.76,
            "CY_DOT_X_DOT": 932.76,
            "CY_DOT_Y_DOT": 5198.51,
            "CZ_DOT_X": 38010.19,
            "CZ_DOT_Y": 46540.95,
            "CZ_DOT_Z": 53957.68,
            "CZ_DOT_X_DOT": 12895.9,
            "CZ_DOT_Y_DOT": 11658.87,
            "CZ_DOT_Z_DOT": 82896.9,
            "ephemerisDataBlock_id": 178899780478701000,
            "id": 178899786632201100
        },
        {
            "EPOCH": "2080-07-22T01:08:30.310Z",
            "COV_REF_FRAME": 1,
            "CX_X": 73183.46,
            "CY_X": 59572.21,
            "CY_Y": 3471.4,
            "CZ_X": 30125.31,
            "CZ_Y": 73796.02,
            "CZ_Z": 73952.2,
            "CX_DOT_X": 72951.83,
            "CX_DOT_Y": 22000.89,
            "CX_DOT_Z": 94012.95,
            "CX_DOT_X_DOT": 90674.88,
            "CY_DOT_X": 8723.76,
            "CY_DOT_Y": 80834.09,
            "CY_DOT_Z": 9089.44,
            "CY_DOT_X_DOT": 18083.55,
            "CY_DOT_Y_DOT": 98258.64,
            "CZ_DOT_X": 94051.16,
            "CZ_DOT_Y": 16052.48,
            "CZ_DOT_Z": 61338.84,
            "CZ_DOT_X_DOT": 39420.92,
            "CZ_DOT_Y_DOT": 41718.54,
            "CZ_DOT_Z_DOT": 64798.05,
            "ephemerisDataBlock_id": 178899780478701000,
            "id": 178899786854600900
        },
        {
            "EPOCH": "2094-04-29T12:08:41.037Z",
            "COV_REF_FRAME": 2,
            "CX_X": 99084.68,
            "CY_X": 70650.16,
            "CY_Y": 43724.57,
            "CZ_X": 86222.38,
            "CZ_Y": 3476.53,
            "CZ_Z": 80870.57,
            "CX_DOT_X": 2545.49,
            "CX_DOT_Y": 71177.41,
            "CX_DOT_Z": 69604.03,
            "CX_DOT_X_DOT": 47886.34,
            "CY_DOT_X": 92124.02,
            "CY_DOT_Y": 48779.94,
            "CY_DOT_Z": 89350.26,
            "CY_DOT_X_DOT": 31500.29,
            "CY_DOT_Y_DOT": 57729.61,
            "CZ_DOT_X": 70133.5,
            "CZ_DOT_Y": 22949.37,
            "CZ_DOT_Z": 81152.03,
            "CZ_DOT_X_DOT": 31893.55,
            "CZ_DOT_Y_DOT": 35894.09,
            "CZ_DOT_Z_DOT": 84771.01,
            "ephemerisDataBlock_id": 178899787291300300,
            "id": 178899789803800000
        },
        {
            "EPOCH": "2020-01-07T10:00:01.649Z",
            "COV_REF_FRAME": 2,
            "CX_X": 84730.57,
            "CY_X": 1243.03,
            "CY_Y": 66779.96,
            "CZ_X": 3196.71,
            "CZ_Y": 36811.85,
            "CZ_Z": 81899.63,
            "CX_DOT_X": 69955.18,
            "CX_DOT_Y": 55980.03,
            "CX_DOT_Z": 22431.53,
            "CX_DOT_X_DOT": 80684.48,
            "CY_DOT_X": 11657.94,
            "CY_DOT_Y": 55021.1,
            "CY_DOT_Z": 48492.48,
            "CY_DOT_X_DOT": 23576.47,
            "CY_DOT_Y_DOT": 92537.12,
            "CZ_DOT_X": 28850.31,
            "CZ_DOT_Y": 5918.94,
            "CZ_DOT_Z": 73168.2,
            "CZ_DOT_X_DOT": 55765.82,
            "CZ_DOT_Y_DOT": 35908.59,
            "CZ_DOT_Z_DOT": 26243.3,
            "ephemerisDataBlock_id": 178899787291300300,
            "id": 178899789924600740
        }
    ]
}